SKYNET 5C               
1 33055U 08030A   26060.43239193 -.00000157  00000+0  00000+0 0  9997
2 33055   3.5132  78.3267 0004938 274.6419 304.0963  1.00271157 64876
TURKSAT 3A              
1 33056U 08030B   26060.45529294  .00000128  00000+0  00000+0 0  9991
2 33056   0.0376  85.2152 0004364 277.9344   1.9606  1.00273077 51275
INTELSAT 25 (IS-25)     
1 33153U 08034A   26060.44090620 -.00000242  00000+0  00000+0 0  9996
2 33153   2.4296  81.6576 0003913 238.3080 326.4878  1.00270855 64616
ECHOSTAR 11             
1 33207U 08035A   26060.40043563 -.00000075  00000+0  00000+0 0  9991
2 33207   0.7260  85.5323 0002574 249.9081 217.8946  1.00271666 50134
SUPERBIRD-C2            
1 33274U 08038A   26060.46155991 -.00000324  00000+0  00000+0 0  9990
2 33274   2.0832  82.6531 0000767  10.8007   7.9790  1.00271202104650
INMARSAT 4-F3           
1 33278U 08039A   26060.33100348 -.00000156  00000+0  00000+0 0  9990
2 33278   4.2009  31.1797 0002752 317.6797 191.4214  1.00271270 45465
NIMIQ 4                 
1 33373U 08044A   26060.43085282 -.00000238  00000+0  00000+0 0  9993
2 33373   0.0234 105.3157 0002299 246.4192 240.5831  1.00271055 63904
GALAXY 19 (G-19)        
1 33376U 08045A   26060.42790615 -.00000157  00000+0  00000+0 0  9999
2 33376   0.0566 267.6924 0003069  80.8304 227.7203  1.00271884 63821
ASTRA 1M                
1 33436U 08057A   26060.30830560  .00000101  00000+0  00000+0 0  9998
2 33436   0.0281  54.3169 0000388  15.1292 219.8174  1.00272248 44656
EUTELSAT HOTBIRD 13C    
1 33459U 08065A   26060.43717951 -.00000300  00000+0  00000+0 0  9996
2 33459   2.6735  80.4840 0003798 268.9447 276.8720  1.00269833 46262
EXPRESS-AM44            
1 33595U 09007A   26060.37365257 -.00000107  00000+0  00000+0 0  9990
2 33595   3.1857  79.7274 0004309 253.2369 309.7004  1.00271503 51203
NSS-9                   
1 33749U 09008A   26060.48220764  .00000053  00000+0  00000+0 0  9996
2 33749   0.9830  83.7333 0002241 246.0552 186.1284  1.00271750 62447
TELSTAR 11N             
1 34111U 09009A   26060.41081439 -.00000269  00000+0  00000+0 0  9998
2 34111   0.0177 129.1285 0002633 197.3840 303.0161  1.00271180 45161
WGS F2 (USA 204)        
1 34713U 09017A   26060.17327833  .00000000  00000+0  00000+0 0  9991
2 34713   0.0282 132.1129 0000474 218.1852 288.5782  1.00267637 44531
SES-7 (PROTOSTAR 2)     
1 34941U 09027A   26060.39731267  .00000000  00000+0  00000+0 0  9999
2 34941   0.0221 125.4502 0001695 175.0746 109.9776  1.00269858 61542
MEASAT-3A               
1 35362U 09032A   26060.40753939 -.00000129  00000+0  00000+0 0  9998
2 35362   0.0215 359.7527 0003551 345.3424 120.8060  1.00271422  6952
GOES 14                 
1 35491U 09033A   26060.47385824  .00000113  00000+0  00000+0 0  9995
2 35491   1.4111  84.4609 0002111 292.5107 156.2773  1.00122694  5511
FM-5                    
1 35493U 09034A   26060.43007281 -.00000218  00000+0  00000+0 0  9999
2 35493   0.0420 276.7681 0001217 303.8907   7.2160  1.00268355 45566
TERRESTAR-1             
1 35496U 09035A   26060.51074859 -.00000072  00000+0  00000+0 0  9995
2 35496   5.0926  48.8330 0002717 305.0769 238.2569  1.00270876 61052
ASIASAT 5               
1 35696U 09042A   26060.51420634 -.00000326  00000+0  00000+0 0  9993
2 35696   0.0325 244.7716 0001490  81.2017 118.9536  1.00272957 60625
JCSAT-12 (JCSAT-RA)     
1 35755U 09044A   26060.46155991  .00000000  00000+0  00000+0 0  9994
2 35755   0.0274 130.1005 0002095 169.6802 157.7028  1.00269008 60538
OPTUS D3                
1 35756U 09044B   26060.40675939 -.00000166  00000+0  00000+0 0  9992
2 35756   0.8824 269.7287 0003156  62.7550 129.2383  1.00271098 60485
NIMIQ 5                 
1 35873U 09050A   26060.43275950 -.00000275  00000+0  00000+0 0  9992
2 35873   0.0598 271.9696 0002674  68.2261 262.1006  1.00270366 60260
AMAZONAS 2              
1 35942U 09054A   26060.43509951 -.00000301  00000+0  00000+0 0  9994
2 35942   1.5355  84.5149 0003506 252.6126 277.9156  1.00273563 60104
COMSATBW-1              
1 35943U 09054B   26060.49991891  .00000006  00000+0  00000+0 0  9990
2 35943   0.0580  88.9633 0003592 264.8128  48.4609  1.00273012 60223
NSS-12                  
1 36032U 09058A   26060.49970376  .00000054  00000+0  00000+0 0  9992
2 36032   0.0107 287.7216 0005141  36.3328  72.1098  1.00271216 59835
THOR 6                  
1 36033U 09058B   26060.37564590 -.00000028  00000+0  00000+0 0  9999
2 36033   0.0103 166.3250 0001872 176.5783 310.6400  1.00271854 59926
INTELSAT 14 (IS-14)     
1 36097U 09064A   26060.43821953 -.00000292  00000+0  00000+0 0  9995
2 36097   0.0137 100.4921 0002533 249.3767 282.1062  1.00272003 59523
EUTELSAT 36B            
1 36101U 09065A   26060.45719961  .00000094  00000+0  00000+0 0  9998
2 36101   0.2191  77.3207 0005907 262.8896  34.1017  1.00270164 59623
INTELSAT 15 (IS-15)     
1 36106U 09067A   26060.39271933 -.00000203  00000+0  00000+0 0  9993
2 36106   0.0166  97.8739 0002366 245.0261  42.8031  1.00271651 40141
WGS F3 (USA 211)        
1 36108U 09068A   26060.41351941  .00000106  00000+0  00000+0 0  9998
2 36108   0.3460  86.3646 0001932 304.2876 107.6017  1.00960689 45517
DIRECTV 12              
1 36131U 09075A   26060.42677947 -.00000122  00000+0  00000+0 0  9999
2 36131   0.0188 319.1212 0000404  20.5356 230.4799  1.00273549 45476
