OBJECT_NAME,OBJECT_ID,EPOCH,MEAN_MOTION,ECCENTRICITY,INCLINATION,RA_OF_ASC_NODE,ARG_OF_PERICENTER,MEAN_ANOMALY,EPHEMERIS_TYPE,CLASSIFICATION_TYPE,NORAD_CAT_ID,ELEMENT_SET_NO,REV_AT_EPOCH,BSTAR,MEAN_MOTION_DOT,MEAN_MOTION_DDOT
SKYNET 5C,2008-030A,2026-03-01T10:22:38.662752,1.00271157,.0004938,3.5132,78.3267,274.6419,304.0963,0,U,33055,999,6487,0,-.157E-5,0
TURKSAT 3A,2008-030B,2026-03-01T10:55:37.310016,1.00273077,.0004364,0.0376,85.2152,277.9344,1.9606,0,U,33056,999,5127,0,.128E-5,0
INTELSAT 25 (IS-25),2008-034A,2026-03-01T10:34:54.295680,1.00270855,.0003913,2.4296,81.6576,238.3080,326.4878,0,U,33153,999,6461,0,-.242E-5,0
ECHOSTAR 11,2008-035A,2026-03-01T09:36:37.638432,1.00271666,.0002574,0.7260,85.5323,249.9081,217.8946,0,U,33207,999,5013,0,-.75E-6,0
SUPERBIRD-C2,2008-038A,2026-03-01T11:04:38.776224,1.00271202,.0000767,2.0832,82.6531,10.8007,7.9790,0,U,33274,999,10465,0,-.324E-5,0
INMARSAT 4-F3,2008-039A,2026-03-01T07:56:38.700672,1.00271270,.0002752,4.2009,31.1797,317.6797,191.4214,0,U,33278,999,4546,0,-.156E-5,0
NIMIQ 4,2008-044A,2026-03-01T10:20:25.683648,1.00271055,.0002299,0.0234,105.3157,246.4192,240.5831,0,U,33373,999,6390,0,-.238E-5,0
GALAXY 19 (G-19),2008-045A,2026-03-01T10:16:11.091360,1.00271884,.0003069,0.0566,267.6924,80.8304,227.7203,0,U,33376,999,6382,0,-.157E-5,0
ASTRA 1M,2008-057A,2026-03-01T07:23:57.603840,1.00272248,.0000388,0.0281,54.3169,15.1292,219.8174,0,U,33436,999,4465,0,.101E-5,0
EUTELSAT HOTBIRD 13C,2008-065A,2026-03-01T10:29:32.309664,1.00269833,.0003798,2.6735,80.4840,268.9447,276.8720,0,U,33459,999,4626,0,-.3E-5,0
EXPRESS-AM44,2009-007A,2026-03-01T08:58:03.582048,1.00271503,.0004309,3.1857,79.7274,253.2369,309.7004,0,U,33595,999,5120,0,-.107E-5,0
NSS-9,2009-008A,2026-03-01T11:34:22.740096,1.00271750,.0002241,0.9830,83.7333,246.0552,186.1284,0,U,33749,999,6244,0,.53E-6,0
TELSTAR 11N,2009-009A,2026-03-01T09:51:34.363296,1.00271180,.0002633,0.0177,129.1285,197.3840,303.0161,0,U,34111,999,4516,0,-.269E-5,0
WGS F2 (USA 204),2009-017A,2026-03-01T04:09:31.247712,1.00267637,.0000474,0.0282,132.1129,218.1852,288.5782,0,U,34713,999,4453,0,0,0
SES-7 (PROTOSTAR 2),2009-027A,2026-03-01T09:32:07.814688,1.00269858,.0001695,0.0221,125.4502,175.0746,109.9776,0,U,34941,999,6154,0,0,0
MEASAT-3A,2009-032A,2026-03-01T09:46:51.403296,1.00271422,.0003551,0.0215,359.7527,345.3424,120.8060,0,U,35362,999,695,0,-.129E-5,0
GOES 14,2009-033A,2026-03-01T11:22:21.351936,1.00122694,.0002111,1.4111,84.4609,292.5107,156.2773,0,U,35491,999,551,0,.113E-5,0
FM-5,2009-034A,2026-03-01T10:19:18.290784,1.00268355,.0001217,0.0420,276.7681,303.8907,7.2160,0,U,35493,999,4556,0,-.218E-5,0
TERRESTAR-1,2009-035A,2026-03-01T12:15:28.678176,1.00270876,.0002717,5.0926,48.8330,305.0769,238.2569,0,U,35496,999,6105,0,-.72E-6,0
ASIASAT 5,2009-042A,2026-03-01T12:20:27.427776,1.00272957,.000149,0.0325,244.7716,81.2017,118.9536,0,U,35696,999,6062,0,-.326E-5,0
JCSAT-12 (JCSAT-RA),2009-044A,2026-03-01T11:04:38.776224,1.00269008,.0002095,0.0274,130.1005,169.6802,157.7028,0,U,35755,999,6053,0,0,0
OPTUS D3,2009-044B,2026-03-01T09:45:44.011296,1.00271098,.0003156,0.8824,269.7287,62.7550,129.2383,0,U,35756,999,6048,0,-.166E-5,0
NIMIQ 5,2009-050A,2026-03-01T10:23:10.420800,1.00270366,.0002674,0.0598,271.9696,68.2261,262.1006,0,U,35873,999,6026,0,-.275E-5,0
AMAZONAS 2,2009-054A,2026-03-01T10:26:32.597664,1.00273563,.0003506,1.5355,84.5149,252.6126,277.9156,0,U,35942,999,6010,0,-.301E-5,0
COMSATBW-1,2009-054B,2026-03-01T11:59:52.993824,1.00273012,.0003592,0.0580,88.9633,264.8128,48.4609,0,U,35943,999,6022,0,.6E-7,0
NSS-12,2009-058A,2026-03-01T11:59:34.404864,1.00271216,.0005141,0.0107,287.7216,36.3328,72.1098,0,U,36032,999,5983,0,.54E-6,0
THOR 6,2009-058B,2026-03-01T09:00:55.805760,1.00271854,.0001872,0.0103,166.3250,176.5783,310.6400,0,U,36033,999,5992,0,-.28E-6,0
INTELSAT 14 (IS-14),2009-064A,2026-03-01T10:31:02.167392,1.00272003,.0002533,0.0137,100.4921,249.3767,282.1062,0,U,36097,999,5952,0,-.292E-5,0
EUTELSAT 36B,2009-065A,2026-03-01T10:58:22.046304,1.00270164,.0005907,0.2191,77.3207,262.8896,34.1017,0,U,36101,999,5962,0,.94E-6,0
INTELSAT 15 (IS-15),2009-067A,2026-03-01T09:25:30.950112,1.00271651,.0002366,0.0166,97.8739,245.0261,42.8031,0,U,36106,999,4014,0,-.203E-5,0
WGS F3 (USA 211),2009-068A,2026-03-01T09:55:28.077024,1.00960689,.0001932,0.3460,86.3646,304.2876,107.6017,0,U,36108,999,4551,0,.106E-5,0
DIRECTV 12,2009-075A,2026-03-01T10:14:33.746208,1.00273549,.0000404,0.0188,319.1212,20.5356,230.4799,0,U,36131,999,4547,0,-.122E-5,0
